TIANMU-1 20             
1 58661U 23208B   26165.58274262  .00007368  00000+0  23550-3 0  9998
2 58661  97.4447 282.5015 0006232 344.4314  15.6735 15.32730349137029
TIANMU-1 21             
1 58662U 23208C   26165.57500093  .00008685  00000+0  25773-3 0  9994
2 58662  97.4506 285.1630 0006153 334.8390  25.2552 15.35036207137161
TIANMU-1 22             
1 58663U 23208D   26165.58916247  .00007018  00000+0  23669-3 0  9999
2 58663  97.4501 281.8135 0003459  13.5911 346.5422 15.31026252136930
TIANMU-1 15             
1 58700U 24004A   26165.60851455  .00005226  00000+0  19995-3 0  9994
2 58700  97.4662 351.7986 0006964  11.6258 348.5140 15.27000329135387
TIANMU-1 16             
1 58701U 24004B   26165.66282832  .00005330  00000+0  20556-3 0  9999
2 58701  97.4607 351.0926 0006081  16.6761 343.4676 15.26725945135394
TIANMU-1 17             
1 58702U 24004C   26165.58273829  .00005436  00000+0  20960-3 0  9993
2 58702  97.4634 351.4966 0005766  23.0529 337.0968 15.26725178135375
TIANMU-1 18             
1 58703U 24004D   26165.62509767  .00004953  00000+0  18982-3 0  9996
2 58703  97.4653 351.7927 0004298  23.6375 336.5060 15.26982996135382
INSAT-3DS               
1 58990U 24033A   26165.63366591 -.00000149  00000+0  00000+0 0  9995
2 58990   0.0434 123.8037 0000983 310.8942 138.4527  1.00271608 47045
METEOR-M2 4             
1 59051U 24039A   26165.65111953 -.00000014  00000+0  13424-4 0  9992
2 59051  98.7009 124.9810 0007148 168.0715 192.0633 14.22429280118905
GOES 19                 
1 60133U 24119A   26165.60253115 -.00000242  00000+0  00000+0 0  9990
2 60133   0.0114  97.0233 0000371  91.0419 216.5553  1.00272170  6935
MTG-S1                  
1 64723U 25143A   26165.61674455 -.00000025  00000+0  00000+0 0  9991
2 64723   0.6054 338.3400 0000986  11.0301 132.0992  1.00271769  3393
METOP-SGA1              
1 65159U 25172A   26165.39364102  .00000041  00000+0  38382-4 0  9993
2 65159  98.6644 225.1723 0000918  91.8157 268.3126 14.21509331 43392
FENGYUN 3H              
1 65815U 25219A   26165.57473873  .00000036  00000+0  37398-4 0  9990
2 65815  98.6768 106.3947 0001600  78.1870 281.9486 14.19920003 37017
