OBJECT_NAME,OBJECT_ID,EPOCH,MEAN_MOTION,ECCENTRICITY,INCLINATION,RA_OF_ASC_NODE,ARG_OF_PERICENTER,MEAN_ANOMALY,EPHEMERIS_TYPE,CLASSIFICATION_TYPE,NORAD_CAT_ID,ELEMENT_SET_NO,REV_AT_EPOCH,BSTAR,MEAN_MOTION_DOT,MEAN_MOTION_DDOT
TIANMU-1 20,2023-208B,2026-06-14T13:59:08.962368,15.32730349,.00062326,97.4447,282.5015,344.4314,15.6735,0,U,58661,999,13702,.23549588E-3,.7368E-4,0
TIANMU-1 21,2023-208C,2026-06-14T13:48:00.080352,15.35036207,.0006153,97.4506,285.1630,334.8390,25.2552,0,U,58662,999,13716,.25773411E-3,.8685E-4,0
TIANMU-1 22,2023-208D,2026-06-14T14:08:23.637408,15.31026252,.00034593,97.4501,281.8135,13.5911,346.5422,0,U,58663,999,13693,.23669236E-3,.7018E-4,0
TIANMU-1 15,2024-004A,2026-06-14T14:36:15.657120,15.27000329,.00069646,97.4662,351.7986,11.6258,348.5140,0,U,58700,999,13538,.19994562E-3,.5226E-4,0
TIANMU-1 16,2024-004B,2026-06-14T15:54:28.366848,15.26725945,.00060811,97.4607,351.0926,16.6761,343.4676,0,U,58701,999,13539,.20556056E-3,.533E-4,0
TIANMU-1 17,2024-004C,2026-06-14T13:59:08.588256,15.26725178,.00057661,97.4634,351.4966,23.0529,337.0968,0,U,58702,999,13537,.2095955E-3,.5436E-4,0
TIANMU-1 18,2024-004D,2026-06-14T15:00:08.438688,15.26982996,.00042987,97.4653,351.7927,23.6375,336.5060,0,U,58703,999,13538,.18981635E-3,.4953E-4,0
INSAT-3DS,2024-033A,2026-06-14T15:12:28.734624,1.00271608,.00009832,0.0434,123.8037,310.8942,138.4527,0,U,58990,999,4704,0,-.149E-5,0
METEOR-M2 4,2024-039A,2026-06-14T15:37:36.727392,14.22429280,.0007148,98.7009,124.9810,168.0715,192.0633,0,U,59051,999,11890,.13424324E-4,-.14E-6,0
GOES 19,2024-119A,2026-06-14T14:27:38.691360,1.00272170,.00003716,0.0114,97.0233,91.0419,216.5553,0,U,60133,999,693,0,-.242E-5,0
MTG-S1,2025-143A,2026-06-14T14:48:06.729120,1.00271769,.00009863,0.6054,338.3400,11.0301,132.0992,0,U,64723,999,339,0,-.25E-6,0
METOP-SGA1,2025-172A,2026-06-14T09:26:50.584128,14.21509331,.00009184,98.6644,225.1723,91.8157,268.3126,0,U,65159,999,4339,.38381805E-4,.41E-6,0
FENGYUN 3H,2025-219A,2026-06-14T13:47:37.426272,14.19920003,.00016002,98.6768,106.3947,78.1870,281.9486,0,U,65815,999,3701,.37397529E-4,.36E-6,0
